ONEWEB-0627             
1 55168U 23004AE  26063.42200564  .00000090  00000+0  19955-3 0  9994
2 55168  87.9140  26.6796 0001773  65.8338 294.2979 13.17650346153785
ONEWEB-0628             
1 55169U 23004AF  26064.11258144 -.00000322  00000+0 -93163-3 0  9992
2 55169  87.8995  11.3079 0001604  56.3854 303.7427 13.12442408154383
ONEWEB-0629             
1 55170U 23004AG  26063.39750831 -.00000096  00000+0 -27951-3 0  9993
2 55170  87.9137  26.6815 0001503  77.6553 282.4747 13.17649896153787
ONEWEB-0631             
1 55171U 23004AH  26064.07445714  .00000019  00000+0  16069-4 0  9993
2 55171  87.9250 356.1093 0002315  76.1769 283.9621 13.18682769155953
ONEWEB-0709             
1 55172U 23004AJ  26063.44888712  .00000215  00000+0  57097-3 0  9996
2 55172  87.8853  41.9093 0002677  92.9505 267.1929 13.11417143152144
ONEWEB-0710             
1 55173U 23004AK  26064.17122001  .00000105  00000+0  23797-3 0  9998
2 55173  87.9144  26.5226 0001935  74.9641 285.1704 13.17649682153887
ONEWEB-0711             
1 55174U 23004AL  26064.18302135 -.00000389  00000+0 -11338-2 0  9991
2 55174  87.8864  41.7440 0001947  62.1972 297.9353 13.11414928152205
ONEWEB-0713             
1 55175U 23004AM  26063.66759463 -.00000250  00000+0 -74167-3 0  9991
2 55175  87.8859  41.8469 0001889  71.5607 288.5726 13.11417836152128
ONEWEB-0715             
1 55176U 23004AN  26063.66250737 -.00000408  00000+0 -11876-2 0  9994
2 55176  87.8858  41.8479 0002569  83.8710 276.2711 13.11417292152164
ONEWEB-0716             
1 55177U 23004AP  26063.40513046  .00000046  00000+0  84216-4 0  9998
2 55177  87.9138  26.6758 0001767  87.1873 272.9460 13.17648172153786
ONEWEB-0717             
1 55178U 23004AQ  26063.38824618 -.00000020  00000+0 -83879-4 0  9994
2 55178  87.9150  26.6575 0002130  62.6666 297.4682 13.17649129153838
ONEWEB-0719             
1 55179U 23004AR  26063.39836495 -.00000065  00000+0 -19929-3 0  9995
2 55179  87.9155  26.6363 0001650  82.6694 277.4625 13.17651163153788
ONEWEB-0530             
1 55796U 23029A   26064.15213017  .00000120  00000+0  26243-3 0  9998
2 55796  87.9170 295.2511 0001442  63.9093 296.2189 13.20771889147412
ONEWEB-0534             
1 55797U 23029B   26064.13950703  .00000106  00000+0  22762-3 0  9993
2 55797  87.9173 295.2520 0001545  86.7213 273.4097 13.20772361147418
ONEWEB-0556             
1 55798U 23029C   26064.14582294 -.00000009  00000+0 -54506-4 0  9997
2 55798  87.9171 295.2529 0000742 105.3979 254.7236 13.20771139147410
ONEWEB-0562             
1 55799U 23029D   26064.13319272  .00000123  00000+0  27048-3 0  9996
2 55799  87.9171 295.2356 0001063  52.4572 307.6658 13.20772137147412
ONEWEB-0563             
1 55800U 23029E   26064.12687796  .00000018  00000+0  11754-4 0  9998
2 55800  87.9182 295.2662 0001449  96.6772 263.4526 13.20772529147404
