[{"OBJECT_NAME":"ONEWEB-0627","OBJECT_ID":"2023-004AE","EPOCH":"2026-03-04T10:07:41.287296","MEAN_MOTION":13.17650346,"ECCENTRICITY":0.00017736,"INCLINATION":87.914,"RA_OF_ASC_NODE":26.6796,"ARG_OF_PERICENTER":65.8338,"MEAN_ANOMALY":294.2979,"EPHEMERIS_TYPE":0,"CLASSIFICATION_TYPE":"U","NORAD_CAT_ID":55168,"ELEMENT_SET_NO":999,"REV_AT_EPOCH":15378,"BSTAR":0.00019954895,"MEAN_MOTION_DOT":9.0e-7,"MEAN_MOTION_DDOT":0},{"OBJECT_NAME":"ONEWEB-0628","OBJECT_ID":"2023-004AF","EPOCH":"2026-03-05T02:42:07.036416","MEAN_MOTION":13.12442408,"ECCENTRICITY":0.0001604,"INCLINATION":87.8995,"RA_OF_ASC_NODE":11.3079,"ARG_OF_PERICENTER":56.3854,"MEAN_ANOMALY":303.7427,"EPHEMERIS_TYPE":0,"CLASSIFICATION_TYPE":"U","NORAD_CAT_ID":55169,"ELEMENT_SET_NO":999,"REV_AT_EPOCH":15438,"BSTAR":-0.00093163,"MEAN_MOTION_DOT":-3.22e-6,"MEAN_MOTION_DDOT":0},{"OBJECT_NAME":"ONEWEB-0629","OBJECT_ID":"2023-004AG","EPOCH":"2026-03-04T09:32:24.717984","MEAN_MOTION":13.17649896,"ECCENTRICITY":0.00015033,"INCLINATION":87.9137,"RA_OF_ASC_NODE":26.6815,"ARG_OF_PERICENTER":77.6553,"MEAN_ANOMALY":282.4747,"EPHEMERIS_TYPE":0,"CLASSIFICATION_TYPE":"U","NORAD_CAT_ID":55170,"ELEMENT_SET_NO":999,"REV_AT_EPOCH":15378,"BSTAR":-0.00027951407,"MEAN_MOTION_DOT":-9.6e-7,"MEAN_MOTION_DDOT":0},{"OBJECT_NAME":"ONEWEB-0631","OBJECT_ID":"2023-004AH","EPOCH":"2026-03-05T01:47:13.096896","MEAN_MOTION":13.18682769,"ECCENTRICITY":0.0002315,"INCLINATION":87.925,"RA_OF_ASC_NODE":356.1093,"ARG_OF_PERICENTER":76.1769,"MEAN_ANOMALY":283.9621,"EPHEMERIS_TYPE":0,"CLASSIFICATION_TYPE":"U","NORAD_CAT_ID":55171,"ELEMENT_SET_NO":999,"REV_AT_EPOCH":15595,"BSTAR":1.6069e-5,"MEAN_MOTION_DOT":1.9e-7,"MEAN_MOTION_DDOT":0},{"OBJECT_NAME":"ONEWEB-0709","OBJECT_ID":"2023-004AJ","EPOCH":"2026-03-04T10:46:23.847168","MEAN_MOTION":13.11417143,"ECCENTRICITY":0.00026778,"INCLINATION":87.8853,"RA_OF_ASC_NODE":41.9093,"ARG_OF_PERICENTER":92.9505,"MEAN_ANOMALY":267.1929,"EPHEMERIS_TYPE":0,"CLASSIFICATION_TYPE":"U","NORAD_CAT_ID":55172,"ELEMENT_SET_NO":999,"REV_AT_EPOCH":15214,"BSTAR":0.00057096568,"MEAN_MOTION_DOT":2.15e-6,"MEAN_MOTION_DDOT":0},{"OBJECT_NAME":"ONEWEB-0710","OBJECT_ID":"2023-004AK","EPOCH":"2026-03-05T04:06:33.408864","MEAN_MOTION":13.17649682,"ECCENTRICITY":0.0001935,"INCLINATION":87.9144,"RA_OF_ASC_NODE":26.5226,"ARG_OF_PERICENTER":74.9641,"MEAN_ANOMALY":285.1704,"EPHEMERIS_TYPE":0,"CLASSIFICATION_TYPE":"U","NORAD_CAT_ID":55173,"ELEMENT_SET_NO":999,"REV_AT_EPOCH":15388,"BSTAR":0.00023797,"MEAN_MOTION_DOT":1.05e-6,"MEAN_MOTION_DDOT":0},{"OBJECT_NAME":"ONEWEB-0711","OBJECT_ID":"2023-004AL","EPOCH":"2026-03-05T04:23:33.044640","MEAN_MOTION":13.11414928,"ECCENTRICITY":0.0001947,"INCLINATION":87.8864,"RA_OF_ASC_NODE":41.744,"ARG_OF_PERICENTER":62.1972,"MEAN_ANOMALY":297.9353,"EPHEMERIS_TYPE":0,"CLASSIFICATION_TYPE":"U","NORAD_CAT_ID":55174,"ELEMENT_SET_NO":999,"REV_AT_EPOCH":15220,"BSTAR":-0.0011338,"MEAN_MOTION_DOT":-3.89e-6,"MEAN_MOTION_DDOT":0},{"OBJECT_NAME":"ONEWEB-0713","OBJECT_ID":"2023-004AM","EPOCH":"2026-03-04T16:01:20.176032","MEAN_MOTION":13.11417836,"ECCENTRICITY":0.0001889,"INCLINATION":87.8859,"RA_OF_ASC_NODE":41.8469,"ARG_OF_PERICENTER":71.5607,"MEAN_ANOMALY":288.5726,"EPHEMERIS_TYPE":0,"CLASSIFICATION_TYPE":"U","NORAD_CAT_ID":55175,"ELEMENT_SET_NO":999,"REV_AT_EPOCH":15212,"BSTAR":-0.00074167,"MEAN_MOTION_DOT":-2.5e-6,"MEAN_MOTION_DDOT":0},{"OBJECT_NAME":"ONEWEB-0715","OBJECT_ID":"2023-004AN","EPOCH":"2026-03-04T15:54:00.636768","MEAN_MOTION":13.11417292,"ECCENTRICITY":0.0002569,"INCLINATION":87.8858,"RA_OF_ASC_NODE":41.8479,"ARG_OF_PERICENTER":83.871,"MEAN_ANOMALY":276.2711,"EPHEMERIS_TYPE":0,"CLASSIFICATION_TYPE":"U","NORAD_CAT_ID":55176,"ELEMENT_SET_NO":999,"REV_AT_EPOCH":15216,"BSTAR":-0.0011876,"MEAN_MOTION_DOT":-4.08e-6,"MEAN_MOTION_DDOT":0},{"OBJECT_NAME":"ONEWEB-0716","OBJECT_ID":"2023-004AP","EPOCH":"2026-03-04T09:43:23.271744","MEAN_MOTION":13.17648172,"ECCENTRICITY":0.00017679,"INCLINATION":87.9138,"RA_OF_ASC_NODE":26.6758,"ARG_OF_PERICENTER":87.1873,"MEAN_ANOMALY":272.946,"EPHEMERIS_TYPE":0,"CLASSIFICATION_TYPE":"U","NORAD_CAT_ID":55177,"ELEMENT_SET_NO":999,"REV_AT_EPOCH":15378,"BSTAR":8.4215707e-5,"MEAN_MOTION_DOT":4.6e-7,"MEAN_MOTION_DDOT":0},{"OBJECT_NAME":"ONEWEB-0717","OBJECT_ID":"2023-004AQ","EPOCH":"2026-03-04T09:19:04.469952","MEAN_MOTION":13.17649129,"ECCENTRICITY":0.00021304,"INCLINATION":87.915,"RA_OF_ASC_NODE":26.6575,"ARG_OF_PERICENTER":62.6666,"MEAN_ANOMALY":297.4682,"EPHEMERIS_TYPE":0,"CLASSIFICATION_TYPE":"U","NORAD_CAT_ID":55178,"ELEMENT_SET_NO":999,"REV_AT_EPOCH":15383,"BSTAR":-8.3879214e-5,"MEAN_MOTION_DOT":-2.0e-7,"MEAN_MOTION_DDOT":0},{"OBJECT_NAME":"ONEWEB-0719","OBJECT_ID":"2023-004AR","EPOCH":"2026-03-04T09:33:38.731680","MEAN_MOTION":13.17651163,"ECCENTRICITY":0.00016503,"INCLINATION":87.9155,"RA_OF_ASC_NODE":26.6363,"ARG_OF_PERICENTER":82.6694,"MEAN_ANOMALY":277.4625,"EPHEMERIS_TYPE":0,"CLASSIFICATION_TYPE":"U","NORAD_CAT_ID":55179,"ELEMENT_SET_NO":999,"REV_AT_EPOCH":15378,"BSTAR":-0.0001992869,"MEAN_MOTION_DOT":-6.5e-7,"MEAN_MOTION_DDOT":0},{"OBJECT_NAME":"ONEWEB-0530","OBJECT_ID":"2023-029A","EPOCH":"2026-03-05T03:39:04.046688","MEAN_MOTION":13.20771889,"ECCENTRICITY":0.0001442,"INCLINATION":87.917,"RA_OF_ASC_NODE":295.2511,"ARG_OF_PERICENTER":63.9093,"MEAN_ANOMALY":296.2189,"EPHEMERIS_TYPE":0,"CLASSIFICATION_TYPE":"U","NORAD_CAT_ID":55796,"ELEMENT_SET_NO":999,"REV_AT_EPOCH":14741,"BSTAR":0.00026243,"MEAN_MOTION_DOT":1.2e-6,"MEAN_MOTION_DDOT":0},{"OBJECT_NAME":"ONEWEB-0534","OBJECT_ID":"2023-029B","EPOCH":"2026-03-05T03:20:53.407392","MEAN_MOTION":13.20772361,"ECCENTRICITY":0.0001545,"INCLINATION":87.9173,"RA_OF_ASC_NODE":295.252,"ARG_OF_PERICENTER":86.7213,"MEAN_ANOMALY":273.4097,"EPHEMERIS_TYPE":0,"CLASSIFICATION_TYPE":"U","NORAD_CAT_ID":55797,"ELEMENT_SET_NO":999,"REV_AT_EPOCH":14741,"BSTAR":0.00022762,"MEAN_MOTION_DOT":1.06e-6,"MEAN_MOTION_DDOT":0},{"OBJECT_NAME":"ONEWEB-0556","OBJECT_ID":"2023-029C","EPOCH":"2026-03-05T03:29:59.102016","MEAN_MOTION":13.20771139,"ECCENTRICITY":7.42e-5,"INCLINATION":87.9171,"RA_OF_ASC_NODE":295.2529,"ARG_OF_PERICENTER":105.3979,"MEAN_ANOMALY":254.7236,"EPHEMERIS_TYPE":0,"CLASSIFICATION_TYPE":"U","NORAD_CAT_ID":55798,"ELEMENT_SET_NO":999,"REV_AT_EPOCH":14741,"BSTAR":-5.4506e-5,"MEAN_MOTION_DOT":-9.0e-8,"MEAN_MOTION_DDOT":0},{"OBJECT_NAME":"ONEWEB-0562","OBJECT_ID":"2023-029D","EPOCH":"2026-03-05T03:11:47.851008","MEAN_MOTION":13.20772137,"ECCENTRICITY":0.0001063,"INCLINATION":87.9171,"RA_OF_ASC_NODE":295.2356,"ARG_OF_PERICENTER":52.4572,"MEAN_ANOMALY":307.6658,"EPHEMERIS_TYPE":0,"CLASSIFICATION_TYPE":"U","NORAD_CAT_ID":55799,"ELEMENT_SET_NO":999,"REV_AT_EPOCH":14741,"BSTAR":0.00027048,"MEAN_MOTION_DOT":1.23e-6,"MEAN_MOTION_DDOT":0},{"OBJECT_NAME":"ONEWEB-0563","OBJECT_ID":"2023-029E","EPOCH":"2026-03-05T03:02:42.255744","MEAN_MOTION":13.20772529,"ECCENTRICITY":0.0001449,"INCLINATION":87.9182,"RA_OF_ASC_NODE":295.2662,"ARG_OF_PERICENTER":96.6772,"MEAN_ANOMALY":263.4526,"EPHEMERIS_TYPE":0,"CLASSIFICATION_TYPE":"U","NORAD_CAT_ID":55800,"ELEMENT_SET_NO":999,"REV_AT_EPOCH":14740,"BSTAR":1.1754e-5,"MEAN_MOTION_DOT":1.8e-7,"MEAN_MOTION_DDOT":0}]
